0 TDS 1
1 40076U 14037H   16120.42824522  .00000163  00000-0  28339-4 0  9990
2 40076  98.3233 209.5507 0005461 335.4904  24.6048 14.81173776 97778
